NORAD_CAT_ID,OBJECT_NAME,OBJECT_TYPE,EPOCH,MEAN_MOTION,ECCENTRICITY,INCLINATION,RA_OF_ASC_NODE,ARG_OF_PERICENTER,MEAN_ANOMALY,BSTAR,MEAN_MOTION_DOT,MEAN_MOTION_DDOT,TLE_LINE0,TLE_LINE1,TLE_LINE2,SEMIMAJOR_AXIS,PERIOD,APOGEE,PERIGEE,DECAYED
50845.0,STARLINK-3230,PAYLOAD,2023-11-18 09:36:35,15.08843294,0.0001396,53.2176,0.3041,89.463,270.6522,8.0286e-05,9.9e-06,0.0,0 STARLINK-3230,1 50845U 22001AU  23322.40041466  .00000990  00000-0  80286-4 0  9990,2 50845  53.2176   0.3041 0001396  89.4630 270.6522 15.08843294103119,6917.87,95.437,540.701,538.77,0.0
50845.0,STARLINK-3230,PAYLOAD,2023-11-18 19:08:54,15.08854603,0.0001361,53.2171,358.5201,85.9858,274.129,-0.00014739,-2.634e-05,0.0,0 STARLINK-3230,1 50845U 22001AU  23322.79785101 -.00002634  00000-0 -14739-3 0  9991,2 50845  53.2171 358.5201 0001361  85.9858 274.1290 15.08854603103178,6917.836,95.437,540.642,538.759,0.0
50845.0,STARLINK-3230,PAYLOAD,2023-11-19 03:05:50,15.0883659,0.0001421,53.2173,357.0338,83.3903,276.7251,4.7897e-05,4.74e-06,0.0,0 STARLINK-3230,1 50845U 22001AU  23323.12905991  .00000474  00000-0  47897-4 0  9990,2 50845  53.2173 357.0338 0001421  83.3903 276.7251 15.08836590104457,6917.891,95.438,540.739,538.773,0.0
50845.0,STARLINK-3230,PAYLOAD,2023-11-19 09:27:23,15.08839984,0.0001465,53.2183,355.8464,82.0777,278.0382,0.00011014,1.465e-05,0.0,0 STARLINK-3230,1 50845U 22001AU  23323.39401713  .00001465  00000-0  11014-3 0  9994,2 50845  53.2183 355.8464 0001465  82.0777 278.0382 15.08839984103265,6917.88,95.438,540.759,538.732,0.0
50845.0,STARLINK-3230,PAYLOAD,2023-11-19 18:59:41,15.08851276,0.000139,53.2183,354.0615,82.0748,278.0402,-0.00012553,-2.286e-05,0.0,0 STARLINK-3230,1 50845U 22001AU  23323.79145441 -.00002286  00000-0 -12553-3 0  9994,2 50845  53.2183 354.0615 0001390  82.0748 278.0402 15.08851276104553,6917.846,95.437,540.673,538.749,0.0
50845.0,STARLINK-3230,PAYLOAD,2023-11-20 02:56:37,15.08838184,0.0001424,53.2181,352.5746,87.99,272.1256,1.9127e-05,1.6e-07,0.0,0 STARLINK-3230,1 50845U 22001AU  23324.12266047  .00000016  00000-0  19127-4 0  9990,2 50845  53.2181 352.5746 0001424  87.9900 272.1256 15.08838184104602,6917.886,95.438,540.736,538.766,0.0
50845.0,STARLINK-3230,PAYLOAD,2023-11-20 09:18:10,15.08843411,0.0001436,53.2181,351.3856,91.5534,268.5623,6.2661e-05,7.1e-06,0.0,0 STARLINK-3230,1 50845U 22001AU  23324.38761598  .00000710  00000-0  62661-4 0  9991,2 50845  53.2181 351.3856 0001436  91.5534 268.5623 15.08843411103412,6917.87,95.437,540.728,538.742,0.0
50845.0,STARLINK-3230,PAYLOAD,2023-11-21 07:33:34,15.08840676,0.0001834,53.2182,347.2208,110.8249,249.2939,4.2572e-05,3.89e-06,0.0,0 STARLINK-3230,1 50845U 22001AU  23325.31497797  .00000389  00000-0  42572-4 0  9993,2 50845  53.2182 347.2208 0001834 110.8249 249.2939 15.08840676104785,6917.878,95.438,541.012,538.475,0.0
50845.0,STARLINK-3230,PAYLOAD,2023-11-21 09:08:58,15.08824675,0.000155,53.2183,346.9242,101.9837,258.1329,-9.4828e-05,-1.796e-05,0.0,0 STARLINK-3230,1 50845U 22001AU  23325.38123231 -.00001796  00000-0 -94828-4 0  9995,2 50845  53.2183 346.9242 0001550 101.9837 258.1329 15.08824675104793,6917.927,95.439,540.865,538.72,0.0
50845.0,STARLINK-3230,PAYLOAD,2023-11-22 10:35:06,15.08857852,0.0001369,53.2174,342.1658,102.2724,257.8422,0.00017445,2.491e-05,0.0,0 STARLINK-3230,1 50845U 22001AU  23326.44104330  .00002491  00000-0  17445-3 0  9992,2 50845  53.2174 342.1658 0001369 102.2724 257.8422 15.08857852104950,6917.826,95.436,540.638,538.744,0.0
50845.0,STARLINK-3230,PAYLOAD,2023-11-23 00:53:35,15.08844459,0.0001667,53.2182,339.491,99.2024,260.9156,1.1105e-06,-2.7e-06,0.0,0 STARLINK-3230,1 50845U 22001AU  23327.03721828 -.00000270  00000-0  11105-5 0  9998,2 50845  53.2182 339.4910 0001667  99.2024 260.9156 15.08844459105047,6917.867,95.437,540.885,538.579,0.0
50845.0,STARLINK-3230,PAYLOAD,2023-11-23 07:15:08,15.08845074,0.0001735,53.218,338.3024,92.1749,267.9442,3.8958e-05,3.32e-06,0.0,0 STARLINK-3230,1 50845U 22001AU  23327.30217635  .00000332  00000-0  38958-4 0  9996,2 50845  53.2180 338.3024 0001735  92.1749 267.9442 15.08845074103857,6917.865,95.437,540.93,538.53,0.0
50845.0,STARLINK-3230,PAYLOAD,2023-11-24 03:55:09,15.08838323,0.0001828,53.2175,334.4372,116.074,244.044,-8.9428e-05,-1.711e-05,0.0,0 STARLINK-3230,1 50845U 22001AU  23328.16330486 -.00001711  00000-0 -89428-4 0  9993,2 50845  53.2175 334.4372 0001828 116.0740 244.0440 15.08838323105219,6917.886,95.438,541.015,538.486,0.0
50845.0,STARLINK-3230,PAYLOAD,2023-11-24 10:16:42,15.08839259,0.0001715,53.2181,333.2414,102.3342,257.7842,-9.55e-05,-1.808e-05,0.0,0 STARLINK-3230,1 50845U 22001AU  23328.42826431 -.00001808  00000-0 -95500-4 0  9997,2 50845  53.2181 333.2414 0001715 102.3342 257.7842 15.08839259104025,6917.883,95.438,540.934,538.561,0.0
50845.0,STARLINK-3230,PAYLOAD,2023-11-25 03:45:56,15.08843216,0.0001684,53.2172,329.9736,98.7004,261.4179,8.287e-05,1.031e-05,0.0,0 STARLINK-3230,1 50845U 22001AU  23329.15690033  .00001031  00000-0  82870-4 0  9997,2 50845  53.2172 329.9736 0001684  98.7004 261.4179 15.08843216105363,6917.871,95.437,540.901,538.571,0.0
50845.0,STARLINK-3230,PAYLOAD,2023-11-25 06:56:42,15.08849478,0.0001757,53.2178,329.3789,101.6811,258.4378,0.00013883,1.923e-05,0.0,0 STARLINK-3230,1 50845U 22001AU  23329.28937613  .00001923  00000-0  13883-3 0  9996,2 50845  53.2178 329.3789 0001757 101.6811 258.4378 15.08849478104151,6917.851,95.437,540.932,538.501,0.0
50845.0,STARLINK-3230,PAYLOAD,2023-11-26 06:47:28,15.08863177,0.0001752,53.2162,324.918,106.9116,253.2069,0.0004226,6.448e-05,0.0,0 STARLINK-3230,1 50845U 22001AU  23330.28297089  .00006448  00000-0  42260-3 0  9992,2 50845  53.2162 324.9180 0001752 106.9116 253.2069 15.08863177104300,6917.81,95.436,540.887,538.463,0.0
50845.0,STARLINK-3230,PAYLOAD,2023-11-27 03:27:32,15.08807034,0.0001646,53.2175,321.0523,95.3076,264.8104,-0.0005062,-8.328e-05,0.0,0 STARLINK-3230,1 50845U 22001AU  23331.14412189 -.00008328  00000-0 -50620-3 0  9998,2 50845  53.2175 321.0523 0001646  95.3076 264.8104 15.08807034105669,6917.981,95.44,540.985,538.707,0.0
50845.0,STARLINK-3230,PAYLOAD,2023-11-27 06:38:18,15.08807837,0.0001691,53.2173,320.4574,95.4279,264.6906,-0.00046614,-7.692e-05,0.0,0 STARLINK-3230,1 50845U 22001AU  23331.27660358 -.00007692  00000-0 -46614-3 0  9996,2 50845  53.2173 320.4574 0001691  95.4279 264.6906 15.08807837104457,6917.979,95.44,541.014,538.674,0.0
50845.0,STARLINK-3230,PAYLOAD,2023-11-27 22:32:09,15.08825822,0.0001861,53.2168,317.4849,76.306,283.8139,-0.00019016,-3.312e-05,0.0,0 STARLINK-3230,1 50845U 22001AU  23331.93900301 -.00003312  00000-0 -19016-3 0  9995,2 50845  53.2168 317.4849 0001861  76.3060 283.8139 15.08825822105789,6917.924,95.438,541.076,538.501,0.0
50845.0,STARLINK-3230,PAYLOAD,2023-11-28 09:39:50,15.08850586,0.0001746,53.2172,315.399,86.9613,273.1578,0.00026903,3.997e-05,0.0,0 STARLINK-3230,1 50845U 22001AU  23332.40267343  .00003997  00000-0  26903-3 0  9990,2 50845  53.2172 315.3990 0001746  86.9613 273.1578 15.08850586105853,6917.848,95.437,540.921,538.505,0.0
50845.0,STARLINK-3230,PAYLOAD,2023-11-29 07:55:14,15.08869078,0.0001781,53.2173,311.2381,98.9412,261.1782,0.00081645,0.0001274,0.0,0 STARLINK-3230,1 50845U 22001AU  23333.33003105  .00012740  00000-0  81645-3 0  9997,2 50845  53.2173 311.2381 0001781  98.9412 261.1782 15.08869078104761,6917.792,95.436,540.889,538.424,0.0
50845.0,STARLINK-3230,PAYLOAD,2023-11-30 02:59:52,15.08845866,0.0001973,53.217,307.6738,94.7349,265.3869,-6.8846e-05,-1.384e-05,0.0,0 STARLINK-3230,1 50845U 22001AU  23334.12491186 -.00001384  00000-0 -68846-4 0  9998,2 50845  53.2170 307.6738 0001973  94.7349 265.3869 15.08845866106111,6917.862,95.437,541.092,538.363,0.0
50845.0,STARLINK-3230,PAYLOAD,2023-12-01 04:26:02,15.08848542,0.0002138,53.2194,302.907,106.4072,253.7155,0.00026671,3.96e-05,0.0,0 STARLINK-3230,1 50845U 22001AU  23335.18475325  .00003960  00000-0  26671-3 0  9991,2 50845  53.2194 302.9070 0002138 106.4072 253.7155 15.08848542106272,6917.854,95.437,541.198,538.24,0.0
50845.0,STARLINK-3230,PAYLOAD,2023-12-02 07:27:34,15.08885175,0.0002131,53.2186,297.8541,97.3567,262.7667,0.0010386,0.000163,0.0,0 STARLINK-3230,1 50845U 22001AU  23336.31081809  .00016300  00000-0  10386-2 0  9994,2 50845  53.2186 297.8541 0002131  97.3567 262.7667 15.08885175106448,6917.742,95.435,541.081,538.133,0.0
50845.0,STARLINK-3230,PAYLOAD,2023-12-03 04:07:37,15.08819165,0.0001995,53.2179,293.9899,128.8244,231.2926,-0.00018206,-3.183e-05,0.0,0 STARLINK-3230,1 50845U 22001AU  23337.17195634 -.00003183  00000-0 -18206-3 0  9998,2 50845  53.2179 293.9899 0001995 128.8244 231.2926 15.08819165106571,6917.944,95.439,541.189,538.429,0.0
50845.0,STARLINK-3230,PAYLOAD,2023-12-03 05:43:00,15.08820233,0.0001917,53.2174,293.6975,121.2688,238.8492,-0.0002097,-3.622e-05,0.0,0 STARLINK-3230,1 50845U 22001AU  23337.23819783 -.00003622  00000-0 -20970-3 0  9992,2 50845  53.2174 293.6975 0001917 121.2688 238.8492 15.08820233105355,6917.941,95.439,541.132,538.48,0.0
50845.0,STARLINK-3230,PAYLOAD,2023-12-04 02:23:01,15.0883531,0.0001708,53.2168,289.8334,105.7434,254.3746,0.00067762,0.00010511,0.0,0 STARLINK-3230,1 50845U 22001AU  23338.09932762  .00010511  00000-0  67762-3 0  9993,2 50845  53.2168 289.8334 0001708 105.7434 254.3746 15.08835310106716,6917.895,95.438,540.941,538.578,0.0
50845.0,STARLINK-3230,PAYLOAD,2023-12-04 07:09:11,15.08843062,0.0001925,53.2174,288.9364,109.542,250.578,0.0011059,0.00017358,0.0,0 STARLINK-3230,1 50845U 22001AU  23338.29804751  .00017358  00000-0  11059-2 0  9994,2 50845  53.2174 288.9364 0001925 109.5420 250.5780 15.08843062105510,6917.871,95.437,541.068,538.404,0.0
50845.0,STARLINK-3230,PAYLOAD,2023-12-05 02:13:48,15.08858038,0.0001939,53.2178,285.3655,107.3524,252.768,0.00062826,9.73e-05,0.0,0 STARLINK-3230,1 50845U 22001AU  23339.09292181  .00009730  00000-0  62826-3 0  9995,2 50845  53.2178 285.3655 0001939 107.3524 252.7680 15.08858038105639,6917.825,95.436,541.032,538.349,0.0
